*******************************************************************************
JPL/HORIZONS                       1 Ceres                 2015-Mar-20 20:58:39
Rec #:     1 (+COV)   Soln.date: 2014-Jul-16_12:44:28   # obs: 6461 (1830-2014)
 
FK5/J2000.0 helio. ecliptic osc. elements (au, days, deg., period=Julian yrs): 
 
  EPOCH=  2448916.5 ! 1992-Oct-21.00 (CT)          Residual RMS= .38835        
   EC= .07646881615610954  QR= 2.556093757459296   TP= 2448139.8924996872      
   OM= 80.67354255829908   W=  71.17556363381966   IN= 10.59946296272898       
   A= 2.7677395221463      MA= 166.2332253774163   ADIST= 2.979385286833304    
   PER= 4.60464            N= .214050496           ANGMOM= .028534519          
   DAN= 2.6853             DDN= 2.82117            L= 151.5458945              
   B= 10.0264853           MOID= 1.59070003        TP= 1990-Sep-05.3924996871  
 
Asteroid physical parameters (km, seconds, rotational period in hours):        
   GM= 63.2                RAD= 476.2              ROTPER= 9.07417             
   H= 3.34                 G= .120                 B-V= .713                   
                           ALBEDO= .090            STYP= C                     
 
ASTEROID comments: 
1: soln ref.= JPL#33, OCC=0
2: source=ORB
*******************************************************************************
 
 
*******************************************************************************
Ephemeris / WWW_USER Fri Mar 20 20:58:39 2015 Pasadena, USA      / Horizons    
*******************************************************************************
Target body name: 1 Ceres                         {source: JPL#33}
Center body name: Earth (399)                     {source: DE-0431LE-0431}
Center-site name: GEOCENTRIC
*******************************************************************************
Start time      : A.D. 2013-Oct-25 08:30:01.0000 UT      
Stop  time      : A.D. 2013-Oct-25 10:30:01.0000 UT      
Step-size       : 1 minutes
*******************************************************************************
Target pole/equ : No model available              {East-longitude -}
Target radii    : 487.3 x 487.3 x 454.7 km        {Equator, meridian, pole}    
Center geodetic : 0.00000000,0.00000000,0.0000000 {E-lon(deg),Lat(deg),Alt(km)}
Center cylindric: 0.00000000,0.00000000,0.0000000 {E-lon(deg),Dxy(km),Dz(km)}
Center pole/equ : High-precision EOP model        {East-longitude +}
Center radii    : 6378.1 x 6378.1 x 6356.8 km     {Equator, meridian, pole}    
Target primary  : Sun
Vis. interferer : MOON (R_eq= 1737.400) km        {source: DE-0431LE-0431}
Rel. light bend : Sun, EARTH                      {source: DE-0431LE-0431}
Rel. lght bnd GM: 1.3271E+11, 3.9860E+05 km^3/s^2                              
Small-body perts: Yes                             {source: SB431-BIG16}
Atmos refraction: NO (AIRLESS)
RA format       : HMS
Time format     : CAL 
EOP file        : eop.150320.p150611                                           
EOP coverage    : DATA-BASED 1962-JAN-20 TO 2015-MAR-20. PREDICTS-> 2015-JUN-10
Units conversion: 1 au= 149597870.700 km, c= 299792.458 km/s, 1 day= 86400.0 s 
Table cut-offs 1: Elevation (-90.0deg=NO ),Airmass (>38.000=NO), Daylight (NO )
Table cut-offs 2: Solar Elongation (  0.0,180.0=NO ),Local Hour Angle( 0.0=NO )
*******************************************************************************
Initial FK5/J2000.0 heliocentric ecliptic osculating elements (au, days, deg.):
  EPOCH=  2448916.5 ! 1992-Oct-21.00 (CT)          Residual RMS= .38835        
   EC= .07646881615610954  QR= 2.556093757459296   TP= 2448139.8924996872      
   OM= 80.67354255829908   W=  71.17556363381966   IN= 10.59946296272898       
Asteroid physical parameters (km, seconds, rotational period in hours):        
   GM= 63.2                RAD= 476.2              ROTPER= 9.07417             
   H= 3.34                 G= .120                 B-V= .713                   
                           ALBEDO= .090            STYP= C                     
*********************************************************************************************************************
 Date__(UT)__HR:MN:SS     R.A.___(ICRF/J2000.0)___DEC  APmag  S-brt            delta      deldot    S-O-T /r    S-T-O
*********************************************************************************************************************
$$SOE
 2013-Oct-25 08:30:01     11 57 47.8076 +09 08 18.003   8.77   6.52 3.28498358240070 -13.1672114  36.8512 /L  13.4712
 2013-Oct-25 08:31:01     11 57 47.8757 +09 08 17.627   8.77   6.52 3.28497830141642 -13.1673297  36.8516 /L  13.4713
 2013-Oct-25 08:32:01     11 57 47.9438 +09 08 17.251   8.77   6.52 3.28497302038469 -13.1674480  36.8520 /L  13.4715
 2013-Oct-25 08:33:01     11 57 48.0119 +09 08 16.875   8.77   6.52 3.28496773930550 -13.1675664  36.8524 /L  13.4716
 2013-Oct-25 08:34:01     11 57 48.0800 +09 08 16.499   8.77   6.52 3.28496245817886 -13.1676847  36.8528 /L  13.4717
 2013-Oct-25 08:35:01     11 57 48.1481 +09 08 16.123   8.77   6.52 3.28495717700475 -13.1678030  36.8532 /L  13.4718
 2013-Oct-25 08:36:01     11 57 48.2162 +09 08 15.747   8.77   6.52 3.28495189578319 -13.1679214  36.8535 /L  13.4719
 2013-Oct-25 08:37:01     11 57 48.2843 +09 08 15.371   8.77   6.52 3.28494661451417 -13.1680397  36.8539 /L  13.4721
 2013-Oct-25 08:38:01     11 57 48.3524 +09 08 14.995   8.77   6.51 3.28494133319769 -13.1681580  36.8543 /L  13.4722
 2013-Oct-25 08:39:01     11 57 48.4205 +09 08 14.619   8.77   6.51 3.28493605183377 -13.1682763  36.8547 /L  13.4723
 2013-Oct-25 08:40:01     11 57 48.4886 +09 08 14.243   8.77   6.51 3.28493077042238 -13.1683947  36.8551 /L  13.4724
 2013-Oct-25 08:41:01     11 57 48.5567 +09 08 13.867   8.77   6.51 3.28492548896354 -13.1685130  36.8554 /L  13.4725
 2013-Oct-25 08:42:01     11 57 48.6248 +09 08 13.491   8.77   6.51 3.28492020745724 -13.1686313  36.8558 /L  13.4727
 2013-Oct-25 08:43:01     11 57 48.6928 +09 08 13.115   8.77   6.51 3.28491492590349 -13.1687496  36.8562 /L  13.4728
 2013-Oct-25 08:44:01     11 57 48.7609 +09 08 12.739   8.77   6.51 3.28490964430228 -13.1688680  36.8566 /L  13.4729
 2013-Oct-25 08:45:01     11 57 48.8290 +09 08 12.363   8.77   6.51 3.28490436265362 -13.1689863  36.8570 /L  13.4730
 2013-Oct-25 08:46:01     11 57 48.8971 +09 08 11.987   8.77   6.51 3.28489908095750 -13.1691046  36.8574 /L  13.4731
 2013-Oct-25 08:47:01     11 57 48.9652 +09 08 11.611   8.77   6.51 3.28489379921391 -13.1692229  36.8577 /L  13.4733
 2013-Oct-25 08:48:01     11 57 49.0333 +09 08 11.235   8.77   6.51 3.28488851742289 -13.1693413  36.8581 /L  13.4734
 2013-Oct-25 08:49:01     11 57 49.1014 +09 08 10.859   8.77   6.51 3.28488323558440 -13.1694596  36.8585 /L  13.4735
 2013-Oct-25 08:50:01     11 57 49.1695 +09 08 10.483   8.77   6.50 3.28487795369846 -13.1695779  36.8589 /L  13.4736
 2013-Oct-25 08:51:01     11 57 49.2376 +09 08 10.107   8.77   6.50 3.28487267176505 -13.1696962  36.8593 /L  13.4737
 2013-Oct-25 08:52:01     11 57 49.3057 +09 08 09.731   8.77   6.50 3.28486738978421 -13.1698146  36.8597 /L  13.4738
 2013-Oct-25 08:53:01     11 57 49.3738 +09 08 09.355   8.77   6.50 3.28486210775589 -13.1699329  36.8600 /L  13.4740
 2013-Oct-25 08:54:01     11 57 49.4419 +09 08 08.979   8.77   6.50 3.28485682568014 -13.1700512  36.8604 /L  13.4741
 2013-Oct-25 08:55:01     11 57 49.5100 +09 08 08.603   8.77   6.50 3.28485154355692 -13.1701695  36.8608 /L  13.4742
 2013-Oct-25 08:56:01     11 57 49.5781 +09 08 08.227   8.77   6.50 3.28484626138624 -13.1702878  36.8612 /L  13.4743
 2013-Oct-25 08:57:01     11 57 49.6461 +09 08 07.851   8.77   6.50 3.28484097916812 -13.1704062  36.8616 /L  13.4744
 2013-Oct-25 08:58:01     11 57 49.7142 +09 08 07.475   8.77   6.50 3.28483569690253 -13.1705245  36.8620 /L  13.4746
 2013-Oct-25 08:59:01     11 57 49.7823 +09 08 07.099   8.77   6.50 3.28483041458950 -13.1706428  36.8623 /L  13.4747
 2013-Oct-25 09:00:01     11 57 49.8504 +09 08 06.723   8.77   6.50 3.28482513222900 -13.1707611  36.8627 /L  13.4748
 2013-Oct-25 09:01:01     11 57 49.9185 +09 08 06.347   8.77   6.50 3.28481984982106 -13.1708795  36.8631 /L  13.4749
 2013-Oct-25 09:02:01     11 57 49.9866 +09 08 05.971   8.77   6.50 3.28481456736565 -13.1709978  36.8635 /L  13.4750
 2013-Oct-25 09:03:01     11 57 50.0547 +09 08 05.595   8.77   6.49 3.28480928486280 -13.1711161  36.8639 /L  13.4752
 2013-Oct-25 09:04:01     11 57 50.1228 +09 08 05.219   8.77   6.49 3.28480400231248 -13.1712344  36.8643 /L  13.4753
 2013-Oct-25 09:05:01     11 57 50.1909 +09 08 04.843   8.77   6.49 3.28479871971471 -13.1713528  36.8646 /L  13.4754
 2013-Oct-25 09:06:01     11 57 50.2590 +09 08 04.467   8.77   6.49 3.28479343706949 -13.1714711  36.8650 /L  13.4755
 2013-Oct-25 09:07:01     11 57 50.3271 +09 08 04.091   8.77   6.49 3.28478815437681 -13.1715894  36.8654 /L  13.4756
 2013-Oct-25 09:08:01     11 57 50.3951 +09 08 03.715   8.77   6.49 3.28478287163669 -13.1717077  36.8658 /L  13.4758
 2013-Oct-25 09:09:01     11 57 50.4632 +09 08 03.339   8.77   6.49 3.28477758884910 -13.1718260  36.8662 /L  13.4759
 2013-Oct-25 09:10:01     11 57 50.5313 +09 08 02.963   8.77   6.49 3.28477230601407 -13.1719444  36.8665 /L  13.4760
 2013-Oct-25 09:11:01     11 57 50.5994 +09 08 02.587   8.77   6.49 3.28476702313158 -13.1720627  36.8669 /L  13.4761
 2013-Oct-25 09:12:01     11 57 50.6675 +09 08 02.211   8.77   6.49 3.28476174020163 -13.1721810  36.8673 /L  13.4762
 2013-Oct-25 09:13:01     11 57 50.7356 +09 08 01.835   8.77   6.49 3.28475645722423 -13.1722993  36.8677 /L  13.4764
 2013-Oct-25 09:14:01     11 57 50.8037 +09 08 01.459   8.77   6.49 3.28475117419937 -13.1724176  36.8681 /L  13.4765
 2013-Oct-25 09:15:01     11 57 50.8718 +09 08 01.083   8.77   6.49 3.28474589112707 -13.1725360  36.8685 /L  13.4766
 2013-Oct-25 09:16:01     11 57 50.9399 +09 08 00.707   8.77   6.49 3.28474060800731 -13.1726543  36.8688 /L  13.4767
